{
  "norad_id": 56553,
  "name": "STARLINK-6074",
  "history": [
    {
      "epoch": "2026-03-28T18:40:55.577856Z",
      "apogee_km": 483.5483078018897,
      "perigee_km": 482.5409491151995,
      "latitude_deg": -4.081551552309942e-05,
      "longitude_deg": 9.164899408715701,
      "height_km": 482.7394557102625,
      "semi_major_axis_km": 6861.181628458545,
      "eccentricity": 7.341e-05,
      "inclination_deg": 43.0018,
      "raan_deg": 115.5905,
      "arg_perigee_deg": 279.312,
      "mean_anomaly_deg": 80.7648,
      "mean_motion_rev_day": 15.27581492
    },
    {
      "epoch": "2026-03-29T08:48:20.148768Z",
      "apogee_km": 483.48116814662353,
      "perigee_km": 482.6119934106109,
      "latitude_deg": 2.310819800265099e-05,
      "longitude_deg": 153.40895767275478,
      "height_km": 482.76562510511144,
      "semi_major_axis_km": 6861.1835807786165,
      "eccentricity": 6.334e-05,
      "inclination_deg": 43.0019,
      "raan_deg": 112.2669,
      "arg_perigee_deg": 277.5624,
      "mean_anomaly_deg": 82.5156,
      "mean_motion_rev_day": 15.2758084
    },
    {
      "epoch": "2026-03-30T09:54:50.540544Z",
      "apogee_km": 483.5488781426184,
      "perigee_km": 482.5796648510068,
      "latitude_deg": 5.792383208370236e-05,
      "longitude_deg": 129.84379611710457,
      "height_km": 482.9584038588935,
      "semi_major_axis_km": 6861.201271496812,
      "eccentricity": 7.063e-05,
      "inclination_deg": 43.0031,
      "raan_deg": 106.3595,
      "arg_perigee_deg": 255.9393,
      "mean_anomaly_deg": 104.1381,
      "mean_motion_rev_day": 15.27574932
    },
    {
      "epoch": "2026-03-30T17:45:37.543104Z",
      "apogee_km": 483.491225514741,
      "perigee_km": 482.6416713037588,
      "latitude_deg": 4.587212254015801e-05,
      "longitude_deg": 9.979399874174112,
      "height_km": 482.933026313576,
      "semi_major_axis_km": 6861.203448409249,
      "eccentricity": 6.191e-05,
      "inclination_deg": 43.0026,
      "raan_deg": 104.5132,
      "arg_perigee_deg": 257.7255,
      "mean_anomaly_deg": 102.3528,
      "mean_motion_rev_day": 15.27574205
    },
    {
      "epoch": "2026-03-31T07:53:01.839264Z",
      "apogee_km": 483.5756912461484,
      "perigee_km": 482.5314180437317,
      "latitude_deg": -1.8027898921117863e-05,
      "longitude_deg": 154.22337042694357,
      "height_km": 482.93628833331076,
      "semi_major_axis_km": 6861.19055464494,
      "eccentricity": 7.61e-05,
      "inclination_deg": 43.0011,
      "raan_deg": 101.1885,
      "arg_perigee_deg": 258.2315,
      "mean_anomaly_deg": 101.8451,
      "mean_motion_rev_day": 15.27578511
    },
    {
      "epoch": "2026-04-01T16:50:19.713120Z",
      "apogee_km": 483.613328066971,
      "perigee_km": 482.5553277382087,
      "latitude_deg": 1.1836292090477588e-05,
      "longitude_deg": 10.789517361890471,
      "height_km": 482.91887603755913,
      "semi_major_axis_km": 6861.22132790259,
      "eccentricity": 7.71e-05,
      "inclination_deg": 43.0025,
      "raan_deg": 93.4325,
      "arg_perigee_deg": 263.6914,
      "mean_anomaly_deg": 96.385,
      "mean_motion_rev_day": 15.27568234
    },
    {
      "epoch": "2026-04-02T16:22:40.145376Z",
      "apogee_km": 483.36540145509116,
      "perigee_km": 482.73842601215347,
      "latitude_deg": -2.7120432720093737e-05,
      "longitude_deg": 11.199329519243092,
      "height_km": 482.8914537490941,
      "semi_major_axis_km": 6861.188913733622,
      "eccentricity": 4.569e-05,
      "inclination_deg": 43.0043,
      "raan_deg": 87.8942,
      "arg_perigee_deg": 258.3664,
      "mean_anomaly_deg": 101.7136,
      "mean_motion_rev_day": 15.27579059
    },
    {
      "epoch": "2026-04-03T15:55:00.727968Z",
      "apogee_km": 483.4055445762806,
      "perigee_km": 482.69472558908456,
      "latitude_deg": -2.1094205559593297e-07,
      "longitude_deg": 11.60698312191694,
      "height_km": 482.8813623838755,
      "semi_major_axis_km": 6861.187135082682,
      "eccentricity": 5.18e-05,
      "inclination_deg": 43.0024,
      "raan_deg": 82.3543,
      "arg_perigee_deg": 261.0886,
      "mean_anomaly_deg": 98.9907,
      "mean_motion_rev_day": 15.27579653
    },
    {
      "epoch": "2026-04-04T15:27:21.737376Z",
      "apogee_km": 483.6399134135145,
      "perigee_km": 482.4803710964725,
      "latitude_deg": 4.5572136434665515e-06,
      "longitude_deg": 12.014329037680753,
      "height_km": 482.98230763804264,
      "semi_major_axis_km": 6861.197142254993,
      "eccentricity": 8.45e-05,
      "inclination_deg": 43.0018,
      "raan_deg": 76.8159,
      "arg_perigee_deg": 255.4361,
      "mean_anomaly_deg": 104.6397,
      "mean_motion_rev_day": 15.27576311
    }
  ]
}